[{"OBJECT_NAME":"STARLINK-33916","OBJECT_ID":"2025-091T","EPOCH":"2026-03-09T23:33:04.692384","MEAN_MOTION":15.27600279,"ECCENTRICITY":0.00024492,"INCLINATION":43.0063,"RA_OF_ASC_NODE":51.1496,"ARG_OF_PERICENTER":273.9954,"MEAN_ANOMALY":86.0617,"EPHEMERIS_TYPE":0,"CLASSIFICATION_TYPE":"U","NORAD_CAT_ID":63792,"ELEMENT_SET_NO":999,"REV_AT_EPOCH":4894,"BSTAR":0.0011538871,"MEAN_MOTION_DOT":0.00031647,"MEAN_MOTION_DDOT":0},{"OBJECT_NAME":"CZ-6A DEB","OBJECT_ID":"2024-140GE","EPOCH":"2026-03-09T23:15:37.114848","MEAN_MOTION":15.28179091,"ECCENTRICITY":0.00907227,"INCLINATION":89.625,"RA_OF_ASC_NODE":325.5051,"ARG_OF_PERICENTER":77.5431,"MEAN_ANOMALY":283.5952,"EPHEMERIS_TYPE":0,"CLASSIFICATION_TYPE":"U","NORAD_CAT_ID":60803,"ELEMENT_SET_NO":999,"REV_AT_EPOCH":8608,"BSTAR":0.0028689301,"MEAN_MOTION_DOT":0.00089907,"MEAN_MOTION_DDOT":0}]
